CCSDS_OMM_VERS = 2.0
CREATION_DATE  = 
ORIGINATOR     = 

OBJECT_NAME    = SL-14 R/B
OBJECT_ID      = 1984-027B
CENTER_NAME    = EARTH
REF_FRAME      = TEME
TIME_SYSTEM    = UTC
MEAN_ELEMENT_THEORY = SGP/SGP4

EPOCH          = 2025-11-01T14:39:23.582304
MEAN_MOTION    = 14.85811552
ECCENTRICITY   = .00189939
INCLINATION    = 82.5442
RA_OF_ASC_NODE = 5.1240
ARG_OF_PERICENTER = 41.6084
MEAN_ANOMALY   = 318.6574

EPHEMERIS_TYPE = 0
CLASSIFICATION_TYPE = U
NORAD_CAT_ID   = 14820
ELEMENT_SET_NO = 999
REV_AT_EPOCH   = 22861
BSTAR          = .67497797E-4
MEAN_MOTION_DOT = .613E-5
MEAN_MOTION_DDOT = 0

CCSDS_OMM_VERS = 2.0
CREATION_DATE  = 
ORIGINATOR     = 

OBJECT_NAME    = SL-8 R/B
OBJECT_ID      = 1985-006B
CENTER_NAME    = EARTH
REF_FRAME      = TEME
TIME_SYSTEM    = UTC
MEAN_ELEMENT_THEORY = SGP/SGP4

EPOCH          = 2025-11-01T13:11:02.431680
MEAN_MOTION    = 14.37683805
ECCENTRICITY   = .0017496
INCLINATION    = 74.0431
RA_OF_ASC_NODE = 136.9165
ARG_OF_PERICENTER = 83.0832
MEAN_ANOMALY   = 293.5300

EPHEMERIS_TYPE = 0
CLASSIFICATION_TYPE = U
NORAD_CAT_ID   = 15483
ELEMENT_SET_NO = 999
REV_AT_EPOCH   = 13561
BSTAR          = .13147828E-3
MEAN_MOTION_DOT = .37E-5
MEAN_MOTION_DDOT = 0

CCSDS_OMM_VERS = 2.0
CREATION_DATE  = 
ORIGINATOR     = 

OBJECT_NAME    = SL-12 R/B(2)
OBJECT_ID      = 1985-042D
CENTER_NAME    = EARTH
REF_FRAME      = TEME
TIME_SYSTEM    = UTC
MEAN_ELEMENT_THEORY = SGP/SGP4

EPOCH          = 2025-11-01T10:36:21.707424
MEAN_MOTION    = 14.21932299
ECCENTRICITY   = .00367146
INCLINATION    = 71.1097
RA_OF_ASC_NODE = 358.6679
ARG_OF_PERICENTER = 322.2532
MEAN_ANOMALY   = 48.2936

EPHEMERIS_TYPE = 0
CLASSIFICATION_TYPE = U
NORAD_CAT_ID   = 15772
ELEMENT_SET_NO = 999
REV_AT_EPOCH   = 9616
BSTAR          = .49622019E-4
MEAN_MOTION_DOT = .62E-6
MEAN_MOTION_DDOT = 0

CCSDS_OMM_VERS = 2.0
CREATION_DATE  = 
ORIGINATOR     = 

OBJECT_NAME    = SL-14 R/B
OBJECT_ID      = 1985-069B
CENTER_NAME    = EARTH
REF_FRAME      = TEME
TIME_SYSTEM    = UTC
MEAN_ELEMENT_THEORY = SGP/SGP4

EPOCH          = 2025-11-01T13:36:11.627136
MEAN_MOTION    = 14.86252196
ECCENTRICITY   = .00173392
INCLINATION    = 82.5252
RA_OF_ASC_NODE = 145.4119
ARG_OF_PERICENTER = 255.9813
MEAN_ANOMALY   = 103.9476

EPHEMERIS_TYPE = 0
CLASSIFICATION_TYPE = U
NORAD_CAT_ID   = 15945
ELEMENT_SET_NO = 999
REV_AT_EPOCH   = 15380
BSTAR          = .69561276E-4
MEAN_MOTION_DOT = .637E-5
MEAN_MOTION_DDOT = 0

CCSDS_OMM_VERS = 2.0
CREATION_DATE  = 
ORIGINATOR     = 

OBJECT_NAME    = SL-16 R/B
OBJECT_ID      = 1985-097B
CENTER_NAME    = EARTH
REF_FRAME      = TEME
TIME_SYSTEM    = UTC
MEAN_ELEMENT_THEORY = SGP/SGP4

EPOCH          = 2025-11-01T11:20:31.498656
MEAN_MOTION    = 14.16576642
ECCENTRICITY   = .00051489
INCLINATION    = 71.0044
RA_OF_ASC_NODE = 50.4791
ARG_OF_PERICENTER = 91.9236
MEAN_ANOMALY   = 339.8065

EPHEMERIS_TYPE = 0
CLASSIFICATION_TYPE = U
NORAD_CAT_ID   = 16182
ELEMENT_SET_NO = 999
REV_AT_EPOCH   = 6907
BSTAR          = .57806253E-4
MEAN_MOTION_DOT = .67E-6
MEAN_MOTION_DDOT = 0

CCSDS_OMM_VERS = 2.0
CREATION_DATE  = 
ORIGINATOR     = 

OBJECT_NAME    = SL-14 R/B
OBJECT_ID      = 1986-006B
CENTER_NAME    = EARTH
REF_FRAME      = TEME
TIME_SYSTEM    = UTC
MEAN_ELEMENT_THEORY = SGP/SGP4

EPOCH          = 2025-11-01T07:19:59.512224
MEAN_MOTION    = 14.86586743
ECCENTRICITY   = .00762521
INCLINATION    = 82.5299
RA_OF_ASC_NODE = 20.5310
ARG_OF_PERICENTER = 339.3731
MEAN_ANOMALY   = 20.4410

EPHEMERIS_TYPE = 0
CLASSIFICATION_TYPE = U
NORAD_CAT_ID   = 16496
ELEMENT_SET_NO = 999
REV_AT_EPOCH   = 13013
BSTAR          = .85129423E-4
MEAN_MOTION_DOT = .821E-5
MEAN_MOTION_DDOT = 0

CCSDS_OMM_VERS = 2.0
CREATION_DATE  = 
ORIGINATOR     = 

OBJECT_NAME    = COSMOS 1743
OBJECT_ID      = 1986-034A
CENTER_NAME    = EARTH
REF_FRAME      = TEME
TIME_SYSTEM    = UTC
MEAN_ELEMENT_THEORY = SGP/SGP4

EPOCH          = 2025-11-01T14:45:17.594208
MEAN_MOTION    = 15.49325372
ECCENTRICITY   = .00088267
INCLINATION    = 82.5388
RA_OF_ASC_NODE = 207.2071
ARG_OF_PERICENTER = 51.1222
MEAN_ANOMALY   = 309.0815

EPHEMERIS_TYPE = 0
CLASSIFICATION_TYPE = U
NORAD_CAT_ID   = 16719
ELEMENT_SET_NO = 999
REV_AT_EPOCH   = 16036
BSTAR          = .51288052E-3
MEAN_MOTION_DOT = .28195E-3
MEAN_MOTION_DDOT = 0

CCSDS_OMM_VERS = 2.0
CREATION_DATE  = 
ORIGINATOR     = 

OBJECT_NAME    = SL-14 R/B
OBJECT_ID      = 1986-046B
CENTER_NAME    = EARTH
REF_FRAME      = TEME
TIME_SYSTEM    = UTC
MEAN_ELEMENT_THEORY = SGP/SGP4

EPOCH          = 2025-11-01T10:07:50.960640
MEAN_MOTION    = 14.85422699
ECCENTRICITY   = .00217663
INCLINATION    = 82.4843
RA_OF_ASC_NODE = 201.3277
ARG_OF_PERICENTER = 293.9301
MEAN_ANOMALY   = 65.9635

EPHEMERIS_TYPE = 0
CLASSIFICATION_TYPE = U
NORAD_CAT_ID   = 16792
ELEMENT_SET_NO = 999
REV_AT_EPOCH   = 10736
BSTAR          = .76528728E-4
MEAN_MOTION_DOT = .685E-5
MEAN_MOTION_DDOT = 0

CCSDS_OMM_VERS = 2.0
CREATION_DATE  = 
ORIGINATOR     = 

OBJECT_NAME    = SL-14 R/B
OBJECT_ID      = 1986-055B
CENTER_NAME    = EARTH
REF_FRAME      = TEME
TIME_SYSTEM    = UTC
MEAN_ELEMENT_THEORY = SGP/SGP4

EPOCH          = 2025-11-01T13:51:21.743136
MEAN_MOTION    = 14.85460191
ECCENTRICITY   = .00201222
INCLINATION    = 82.5202
RA_OF_ASC_NODE = 247.0453
ARG_OF_PERICENTER = 39.8624
MEAN_ANOMALY   = 133.6034

EPHEMERIS_TYPE = 0
CLASSIFICATION_TYPE = U
NORAD_CAT_ID   = 16882
ELEMENT_SET_NO = 999
REV_AT_EPOCH   = 10034
BSTAR          = .89956059E-4
MEAN_MOTION_DOT = .802E-5
MEAN_MOTION_DDOT = 0

CCSDS_OMM_VERS = 2.0
CREATION_DATE  = 
ORIGINATOR     = 

OBJECT_NAME    = AJISAI (EGS)
OBJECT_ID      = 1986-061A
CENTER_NAME    = EARTH
REF_FRAME      = TEME
TIME_SYSTEM    = UTC
MEAN_ELEMENT_THEORY = SGP/SGP4

EPOCH          = 2025-11-01T15:13:40.685952
MEAN_MOTION    = 12.44514108
ECCENTRICITY   = .00111341
INCLINATION    = 50.0063
RA_OF_ASC_NODE = 127.1134
ARG_OF_PERICENTER = 322.0756
MEAN_ANOMALY   = 146.0759

EPHEMERIS_TYPE = 0
CLASSIFICATION_TYPE = U
NORAD_CAT_ID   = 16908
ELEMENT_SET_NO = 999
REV_AT_EPOCH   = 45205
BSTAR          = .14307486E-3
MEAN_MOTION_DOT = -.77E-6
MEAN_MOTION_DDOT = 0

CCSDS_OMM_VERS = 2.0
CREATION_DATE  = 
ORIGINATOR     = 

OBJECT_NAME    = COSMOS 1812
OBJECT_ID      = 1987-003A
CENTER_NAME    = EARTH
REF_FRAME      = TEME
TIME_SYSTEM    = UTC
MEAN_ELEMENT_THEORY = SGP/SGP4

EPOCH          = 2025-11-01T12:34:32.826720
MEAN_MOTION    = 15.67531598
ECCENTRICITY   = .00035427
INCLINATION    = 82.4906
RA_OF_ASC_NODE = 336.3501
ARG_OF_PERICENTER = 171.4071
MEAN_ANOMALY   = 188.7251

EPHEMERIS_TYPE = 0
CLASSIFICATION_TYPE = U
NORAD_CAT_ID   = 17295
ELEMENT_SET_NO = 999
REV_AT_EPOCH   = 12418
BSTAR          = .54302006E-3
MEAN_MOTION_DOT = .5925E-3
MEAN_MOTION_DDOT = 0

CCSDS_OMM_VERS = 2.0
CREATION_DATE  = 
ORIGINATOR     = 

OBJECT_NAME    = SL-14 R/B
OBJECT_ID      = 1987-024B
CENTER_NAME    = EARTH
REF_FRAME      = TEME
TIME_SYSTEM    = UTC
MEAN_ELEMENT_THEORY = SGP/SGP4

EPOCH          = 2025-11-01T12:02:58.624224
MEAN_MOTION    = 14.85960948
ECCENTRICITY   = .00175449
INCLINATION    = 82.5306
RA_OF_ASC_NODE = 213.1850
ARG_OF_PERICENTER = 330.0443
MEAN_ANOMALY   = 29.9768

EPHEMERIS_TYPE = 0
CLASSIFICATION_TYPE = U
NORAD_CAT_ID   = 17567
ELEMENT_SET_NO = 999
REV_AT_EPOCH   = 6909
BSTAR          = .8046065E-4
MEAN_MOTION_DOT = .728E-5
MEAN_MOTION_DDOT = 0

CCSDS_OMM_VERS = 2.0
CREATION_DATE  = 
ORIGINATOR     = 

OBJECT_NAME    = COSMOS 1833
OBJECT_ID      = 1987-027A
CENTER_NAME    = EARTH
REF_FRAME      = TEME
TIME_SYSTEM    = UTC
MEAN_ELEMENT_THEORY = SGP/SGP4

EPOCH          = 2025-11-01T12:24:54.362304
MEAN_MOTION    = 14.13024571
ECCENTRICITY   = .00206393
INCLINATION    = 70.9162
RA_OF_ASC_NODE = 235.4304
ARG_OF_PERICENTER = 30.2394
MEAN_ANOMALY   = 329.9913

EPHEMERIS_TYPE = 0
CLASSIFICATION_TYPE = U
NORAD_CAT_ID   = 17589
ELEMENT_SET_NO = 999
REV_AT_EPOCH   = 99220
BSTAR          = -.14238187E-3
MEAN_MOTION_DOT = -.314E-5
MEAN_MOTION_DDOT = 0

CCSDS_OMM_VERS = 2.0
CREATION_DATE  = 
ORIGINATOR     = 

OBJECT_NAME    = SL-16 R/B
OBJECT_ID      = 1987-027B
CENTER_NAME    = EARTH
REF_FRAME      = TEME
TIME_SYSTEM    = UTC
MEAN_ELEMENT_THEORY = SGP/SGP4

EPOCH          = 2025-11-01T15:37:44.537088
MEAN_MOTION    = 14.17142379
ECCENTRICITY   = .00067883
INCLINATION    = 71.0019
RA_OF_ASC_NODE = 186.2978
ARG_OF_PERICENTER = 303.0624
MEAN_ANOMALY   = 56.9847

EPHEMERIS_TYPE = 0
CLASSIFICATION_TYPE = U
NORAD_CAT_ID   = 17590
ELEMENT_SET_NO = 999
REV_AT_EPOCH   = 99724
BSTAR          = .77396769E-4
MEAN_MOTION_DOT = .108E-5
MEAN_MOTION_DDOT = 0

CCSDS_OMM_VERS = 2.0
CREATION_DATE  = 
ORIGINATOR     = 

OBJECT_NAME    = SL-14 R/B
OBJECT_ID      = 1987-038B
CENTER_NAME    = EARTH
REF_FRAME      = TEME
TIME_SYSTEM    = UTC
MEAN_ELEMENT_THEORY = SGP/SGP4

EPOCH          = 2025-11-01T13:34:53.935392
MEAN_MOTION    = 14.85195701
ECCENTRICITY   = .00182766
INCLINATION    = 82.5025
RA_OF_ASC_NODE = 57.4714
ARG_OF_PERICENTER = 225.0368
MEAN_ANOMALY   = 134.9368

EPHEMERIS_TYPE = 0
CLASSIFICATION_TYPE = U
NORAD_CAT_ID   = 17912
ELEMENT_SET_NO = 999
REV_AT_EPOCH   = 6021
BSTAR          = .88443392E-4
MEAN_MOTION_DOT = .783E-5
MEAN_MOTION_DDOT = 0

